[{"OBJECT_NAME":"FLOCK 4G-24","OBJECT_ID":"2025-009AE","EPOCH":"2026-03-09T17:24:07.838208","MEAN_MOTION":15.27784978,"ECCENTRICITY":0.0001802,"INCLINATION":97.4061,"RA_OF_ASC_NODE":151.514,"ARG_OF_PERICENTER":280.2808,"MEAN_ANOMALY":79.8228,"EPHEMERIS_TYPE":0,"CLASSIFICATION_TYPE":"U","NORAD_CAT_ID":62637,"ELEMENT_SET_NO":999,"REV_AT_EPOCH":6373,"BSTAR":0.00038996067,"MEAN_MOTION_DOT":0.00010513,"MEAN_MOTION_DDOT":0},{"OBJECT_NAME":"STARLINK-36092","OBJECT_ID":"2025-281X","EPOCH":"2026-03-09T04:05:46.028832","MEAN_MOTION":15.27588836,"ECCENTRICITY":0.00011836,"INCLINATION":43.0018,"RA_OF_ASC_NODE":346.622,"ARG_OF_PERICENTER":269.248,"MEAN_ANOMALY":90.8236,"EPHEMERIS_TYPE":0,"CLASSIFICATION_TYPE":"U","NORAD_CAT_ID":66869,"ELEMENT_SET_NO":999,"REV_AT_EPOCH":1609,"BSTAR":0.00099106451,"MEAN_MOTION_DOT":0.00027117,"MEAN_MOTION_DDOT":0}]
